start=new Date('2022-06-16T00:00:00.000Z').valueOf();
sats=[{"RCS_SIZE":"LARGE","TLE_LINE1":"1 47571U 21009Z   22166.85423660 -.00001681  00000-0 -94020-4 0  9994","MEAN_MOTION_DOT":"-0.00001681","APOAPSIS":"548.265","MEAN_MOTION":"15.06389686","MEAN_ANOMALY":"295.2755","COUNTRY_CODE":"US","MEAN_MOTION_DDOT":"0.0000000000000","NORAD_CAT_ID":"47571","SITE":"AFETR","ELEMENT_SET_NO":"999","GP_ID":"206214148","SEMIMAJOR_AXIS":"6925.380","EPHEMERIS_TYPE":"0","TLE_LINE2":"2 47571  53.0560   9.6293 0001472  64.8387 295.2755 15.06389686 76127","TIME_SYSTEM":"UTC","ARG_OF_PERICENTER":"64.8387","REF_FRAME":"TEME","CENTER_NAME":"EARTH","OBJECT_NAME":"STARLINK-1970","RA_OF_ASC_NODE":"9.6293","CLASSIFICATION_TYPE":"U","INCLINATION":"53.0560","MEAN_ELEMENT_THEORY":"SGP4","DECAY_DATE":null,"BSTAR":"-0.00009402000000","LAUNCH_DATE":"2021-02-04","PERIOD":"95.593","OBJECT_ID":"2021-009Z","FILE":"3496919","EPOCH":"2022-06-15T20:30:06.042240","REV_AT_EPOCH":"7612","OBJECT_TYPE":"PAYLOAD","ECCENTRICITY":"0.00014720","PERIAPSIS":"546.226"},{"ELEMENT_SET_NO":"999","GP_ID":"206213646","SITE":"AFETR","NORAD_CAT_ID":"47572","TIME_SYSTEM":"UTC","TLE_LINE2":"2 47572  53.0539   9.7218 0001796  49.4796 310.6350 15.06390208 76129","SEMIMAJOR_AXIS":"6925.379","EPHEMERIS_TYPE":"0","MEAN_MOTION_DOT":"0.00000043","APOAPSIS":"548.487","MEAN_MOTION":"15.06390208","COUNTRY_CODE":"US","MEAN_ANOMALY":"310.6350","MEAN_MOTION_DDOT":"0.0000000000000","RCS_SIZE":"LARGE","TLE_LINE1":"1 47572U 21009AA  22166.83580163  .00000043  00000-0  21779-4 0  9995","OBJECT_ID":"2021-009AA","FILE":"3496919","REV_AT_EPOCH":"7612","EPOCH":"2022-06-15T20:03:33.260832","ECCENTRICITY":"0.00017960","OBJECT_TYPE":"PAYLOAD","PERIOD":"95.593","PERIAPSIS":"546.000","RA_OF_ASC_NODE":"9.7218","CLASSIFICATION_TYPE":"U","ARG_OF_PERICENTER":"49.4796","REF_FRAME":"TEME","CENTER_NAME":"EARTH","OBJECT_NAME":"STARLINK-1971","DECAY_DATE":null,"LAUNCH_DATE":"2021-02-04","BSTAR":"0.00002177900000","INCLINATION":"53.0539","MEAN_ELEMENT_THEORY":"SGP4"},{"SEMIMAJOR_AXIS":"6925.325","EPHEMERIS_TYPE":"0","TLE_LINE2":"2 47573  53.0540   9.5243 0001745  60.8652 299.2511 15.06407788 75526","TIME_SYSTEM":"UTC","NORAD_CAT_ID":"47573","SITE":"AFETR","ELEMENT_SET_NO":"999","GP_ID":"206237144","RCS_SIZE":"LARGE","TLE_LINE1":"1 47573U 21009AB  22166.88002728  .00000131  00000-0  27693-4 0  9996","APOAPSIS":"548.398","MEAN_MOTION_DOT":"0.00000131","MEAN_MOTION":"15.06407788","MEAN_ANOMALY":"299.2511","COUNTRY_CODE":"US","MEAN_MOTION_DDOT":"0.0000000000000","PERIAPSIS":"545.981","PERIOD":"95.592","FILE":"3496999","OBJECT_ID":"2021-009AB","EPOCH":"2022-06-15T21:07:14.356992","REV_AT_EPOCH":"7552","ECCENTRICITY":"0.00017450","OBJECT_TYPE":"PAYLOAD","INCLINATION":"53.0540","MEAN_ELEMENT_THEORY":"SGP4","DECAY_DATE":null,"LAUNCH_DATE":"2021-02-04","BSTAR":"0.00002769300000","ARG_OF_PERICENTER":"60.8652","REF_FRAME":"TEME","CENTER_NAME":"EARTH","OBJECT_NAME":"STARLINK-1975","RA_OF_ASC_NODE":"9.5243","CLASSIFICATION_TYPE":"U"},{"EPOCH":"2022-06-15T19:54:15.821856","REV_AT_EPOCH":"7569","FILE":"3496936","OBJECT_ID":"2021-009AC","ECCENTRICITY":"0.00017250","OBJECT_TYPE":"PAYLOAD","PERIOD":"95.592","PERIAPSIS":"546.024","RA_OF_ASC_NODE":"39.7400","CLASSIFICATION_TYPE":"U","REF_FRAME":"TEME","ARG_OF_PERICENTER":"54.8702","OBJECT_NAME":"STARLINK-1976","CENTER_NAME":"EARTH","DECAY_DATE":null,"LAUNCH_DATE":"2021-02-04","BSTAR":"0.00005602700000","INCLINATION":"53.0558","MEAN_ELEMENT_THEORY":"SGP4","ELEMENT_SET_NO":"999","GP_ID":"206214161","SITE":"AFETR","NORAD_CAT_ID":"47574","TLE_LINE2":"2 47574  53.0558  39.7400 0001725  54.8702 305.2448 15.06398256 75697","TIME_SYSTEM":"UTC","SEMIMAJOR_AXIS":"6925.354","EPHEMERIS_TYPE":"0","MEAN_MOTION":"15.06398256","APOAPSIS":"548.414","MEAN_MOTION_DOT":"0.00000553","MEAN_MOTION_DDOT":"0.0000000000000","COUNTRY_CODE":"US","MEAN_ANOMALY":"305.2448","RCS_SIZE":"LARGE","TLE_LINE1":"1 47574U 21009AC  22166.82934979  .00000553  00000-0  56027-4 0  9994"},{"TLE_LINE1":"1 47575U 21009AD  22166.88464790  .00004013  00000-0  28844-3 0  9990","RCS_SIZE":"LARGE","MEAN_MOTION_DDOT":"0.0000000000000","COUNTRY_CODE":"US","MEAN_ANOMALY":"285.4402","MEAN_MOTION":"15.06364212","APOAPSIS":"548.577","MEAN_MOTION_DOT":"0.00004013","EPHEMERIS_TYPE":"0","SEMIMAJOR_AXIS":"6925.458","TLE_LINE2":"2 47575  53.0555  39.4992 0001810  74.6786 285.4402 15.06364212 75105","TIME_SYSTEM":"UTC","NORAD_CAT_ID":"47575","SITE":"AFETR","GP_ID":"206236143","ELEMENT_SET_NO":"999","MEAN_ELEMENT_THEORY":"SGP4","INCLINATION":"53.0555","BSTAR":"0.00028844000000","LAUNCH_DATE":"2021-02-04","DECAY_DATE":null,"OBJECT_NAME":"STARLINK-1977","CENTER_NAME":"EARTH","REF_FRAME":"TEME","ARG_OF_PERICENTER":"74.6786","CLASSIFICATION_TYPE":"U","RA_OF_ASC_NODE":"39.4992","PERIAPSIS":"546.070","PERIOD":"95.594","ECCENTRICITY":"0.00018100","OBJECT_TYPE":"PAYLOAD","EPOCH":"2022-06-15T21:13:53.578560","REV_AT_EPOCH":"7510","OBJECT_ID":"2021-009AD","FILE":"3496999"},{"TIME_SYSTEM":"UTC","TLE_LINE2":"2 47576  53.0569 359.9418 0001552  57.4408 302.6730 15.06390145 75657","EPHEMERIS_TYPE":"0","SEMIMAJOR_AXIS":"6925.379","GP_ID":"206236393","ELEMENT_SET_NO":"999","SITE":"AFETR","NORAD_CAT_ID":"47576","MEAN_MOTION_DDOT":"0.0000000000000","MEAN_ANOMALY":"302.6730","COUNTRY_CODE":"US","MEAN_MOTION":"15.06390145","APOAPSIS":"548.319","MEAN_MOTION_DOT":"-0.00000957","TLE_LINE1":"1 47576U 21009AE  22166.78512616 -.00000957  00000-0 -45401-4 0  9995","RCS_SIZE":"LARGE","PERIAPSIS":"546.169","OBJECT_TYPE":"PAYLOAD","ECCENTRICITY":"0.00015520","REV_AT_EPOCH":"7565","EPOCH":"2022-06-15T18:50:34.900224","FILE":"3496999","OBJECT_ID":"2021-009AE","PERIOD":"95.593","LAUNCH_DATE":"2021-02-04","BSTAR":"-0.00004540100000","DECAY_DATE":null,"MEAN_ELEMENT_THEORY":"SGP4","INCLINATION":"53.0569","CLASSIFICATION_TYPE":"U","RA_OF_ASC_NODE":"359.9418","OBJECT_NAME":"STARLINK-1978","CENTER_NAME":"EARTH","REF_FRAME":"TEME","ARG_OF_PERICENTER":"57.4408"},{"RA_OF_ASC_NODE":"14.7561","CLASSIFICATION_TYPE":"U","ARG_OF_PERICENTER":"63.9428","REF_FRAME":"TEME","CENTER_NAME":"EARTH","OBJECT_NAME":"STARLINK-1979","DECAY_DATE":null,"LAUNCH_DATE":"2021-02-04","BSTAR":"-0.00005594200000","INCLINATION":"53.0561","MEAN_ELEMENT_THEORY":"SGP4","FILE":"3496936","OBJECT_ID":"2021-009AF","REV_AT_EPOCH":"7605","EPOCH":"2022-06-15T19:49:37.966368","ECCENTRICITY":"0.00015560","OBJECT_TYPE":"PAYLOAD","PERIOD":"95.593","PERIAPSIS":"546.175","APOAPSIS":"548.331","MEAN_MOTION_DOT":"-0.00001114","MEAN_MOTION":"15.06387121","COUNTRY_CODE":"US","MEAN_ANOMALY":"296.1721","MEAN_MOTION_DDOT":"0.0000000000000","RCS_SIZE":"LARGE","TLE_LINE1":"1 47577U 21009AF  22166.82613387 -.00001114  00000-0 -55942-4 0  9995","ELEMENT_SET_NO":"999","GP_ID":"206214160","NORAD_CAT_ID":"47577","SITE":"AFETR","TIME_SYSTEM":"UTC","TLE_LINE2":"2 47577  53.0561  14.7561 0001556  63.9428 296.1721 15.06387121 76055","SEMIMAJOR_AXIS":"6925.388","EPHEMERIS_TYPE":"0"},{"RA_OF_ASC_NODE":"19.4855","CLASSIFICATION_TYPE":"U","ARG_OF_PERICENTER":"55.9858","REF_FRAME":"TEME","CENTER_NAME":"EARTH","OBJECT_NAME":"STARLINK-1980","DECAY_DATE":null,"BSTAR":"-0.00003586900000","LAUNCH_DATE":"2021-02-04","INCLINATION":"53.0563","MEAN_ELEMENT_THEORY":"SGP4","OBJECT_ID":"2021-009AG","FILE":"3496999","REV_AT_EPOCH":"7538","EPOCH":"2022-06-15T21:16:32.049984","OBJECT_TYPE":"PAYLOAD","ECCENTRICITY":"0.00016060","PERIOD":"95.592","PERIAPSIS":"546.118","MEAN_MOTION_DOT":"-0.00000816","APOAPSIS":"548.342","MEAN_MOTION":"15.06394693","COUNTRY_CODE":"US","MEAN_ANOMALY":"304.1283","MEAN_MOTION_DDOT":"0.0000000000000","RCS_SIZE":"LARGE","TLE_LINE1":"1 47578U 21009AG  22166.88648206 -.00000816  00000-0 -35869-4 0  9994","ELEMENT_SET_NO":"999","GP_ID":"206237895","NORAD_CAT_ID":"47578","SITE":"AFETR","TLE_LINE2":"2 47578  53.0563  19.4855 0001606  55.9858 304.1283 15.06394693 75380","TIME_SYSTEM":"UTC","SEMIMAJOR_AXIS":"6925.365","EPHEMERIS_TYPE":"0"},{"REF_FRAME":"TEME","ARG_OF_PERICENTER":"49.7615","OBJECT_NAME":"STARLINK-1981","CENTER_NAME":"EARTH","RA_OF_ASC_NODE":"9.5708","CLASSIFICATION_TYPE":"U","INCLINATION":"53.0553","MEAN_ELEMENT_THEORY":"SGP4","DECAY_DATE":null,"LAUNCH_DATE":"2021-02-04","BSTAR":"-0.00006483000000","PERIOD":"95.593","REV_AT_EPOCH":"7552","EPOCH":"2022-06-15T20:51:20.138976","FILE":"3496999","OBJECT_ID":"2021-009AH","OBJECT_TYPE":"PAYLOAD","ECCENTRICITY":"0.00018150","PERIAPSIS":"545.986","RCS_SIZE":"LARGE","TLE_LINE1":"1 47579U 21009AH  22166.86898309 -.00001247  00000-0 -64830-4 0  9993","MEAN_MOTION":"15.06390491","MEAN_MOTION_DOT":"-0.00001247","APOAPSIS":"548.500","MEAN_MOTION_DDOT":"0.0000000000000","MEAN_ANOMALY":"310.3533","COUNTRY_CODE":"US","SITE":"AFETR","NORAD_CAT_ID":"47579","ELEMENT_SET_NO":"999","GP_ID":"206236643","SEMIMAJOR_AXIS":"6925.378","EPHEMERIS_TYPE":"0","TIME_SYSTEM":"UTC","TLE_LINE2":"2 47579  53.0553   9.5708 0001815  49.7615 310.3533 15.06390491 75526"},{"MEAN_MOTION_DDOT":"0.0000000000000","COUNTRY_CODE":"US","MEAN_ANOMALY":"298.2320","MEAN_MOTION":"15.06391167","APOAPSIS":"548.418","MEAN_MOTION_DOT":"-0.00000627","TLE_LINE1":"1 47580U 21009AJ  22166.89017263 -.00000627  00000-0 -23214-4 0  9992","RCS_SIZE":"LARGE","GP_ID":"206236893","ELEMENT_SET_NO":"999","SITE":"AFETR","NORAD_CAT_ID":"47580","TLE_LINE2":"2 47580  53.0572  19.4786 0001700  61.8840 298.2320 15.06391167 75386","TIME_SYSTEM":"UTC","EPHEMERIS_TYPE":"0","SEMIMAJOR_AXIS":"6925.376","CLASSIFICATION_TYPE":"U","RA_OF_ASC_NODE":"19.4786","OBJECT_NAME":"STARLINK-1982","CENTER_NAME":"EARTH","REF_FRAME":"TEME","ARG_OF_PERICENTER":"61.8840","LAUNCH_DATE":"2021-02-04","BSTAR":"-0.00002321400000","DECAY_DATE":null,"MEAN_ELEMENT_THEORY":"SGP4","INCLINATION":"53.0572","OBJECT_TYPE":"PAYLOAD","ECCENTRICITY":"0.00017000","REV_AT_EPOCH":"7538","EPOCH":"2022-06-15T21:21:50.915232","FILE":"3496999","OBJECT_ID":"2021-009AJ","PERIOD":"95.593","PERIAPSIS":"546.063"}];
